NORAD_CAT_ID,OBJECT_NAME,OBJECT_TYPE,EPOCH,MEAN_MOTION,ECCENTRICITY,INCLINATION,RA_OF_ASC_NODE,ARG_OF_PERICENTER,MEAN_ANOMALY,BSTAR,MEAN_MOTION_DOT,MEAN_MOTION_DDOT,TLE_LINE0,TLE_LINE1,TLE_LINE2,SEMIMAJOR_AXIS,PERIOD,APOGEE,PERIGEE,DECAYED
51728.0,STARLINK-3448,PAYLOAD,2024-06-15 16:15:52,15.08838106,0.0001291,53.218,276.3363,93.7051,266.4089,4.2164e-05,3.83e-06,0.0,0 STARLINK-3448,1 51728U 22016Q   24167.67769137  .00000383  00000-0  42164-4 0  9995,2 51728  53.2180 276.3363 0001291  93.7051 266.4089 15.08838106128154,6917.886,95.438,540.644,538.858,0.0
51728.0,STARLINK-3448,PAYLOAD,2024-06-16 14:31:16,15.0883866,0.0001401,53.2176,272.1696,73.1985,286.916,-3.3707e-05,-8.24e-06,0.0,0 STARLINK-3448,1 51728U 22016Q   24168.60505390 -.00000824  00000-0 -33707-4 0  9993,2 51728  53.2176 272.1696 0001401  73.1985 286.9160 15.08838660128290,6917.884,95.438,540.719,538.78,0.0
51728.0,STARLINK-3448,PAYLOAD,2024-06-16 16:06:39,15.08839432,0.0001414,53.2176,271.8721,72.8966,287.2181,-2.6966e-05,-7.17e-06,0.0,0 STARLINK-3448,1 51728U 22016Q   24168.67129331 -.00000717  00000-0 -26966-4 0  9997,2 51728  53.2176 271.8721 0001414  72.8966 287.2181 15.08839432128301,6917.882,95.438,540.725,538.769,0.0
51728.0,STARLINK-3448,PAYLOAD,2024-06-17 12:46:40,15.08831353,0.0001183,53.2173,268.0078,97.1052,263.0075,0.00012557,1.711e-05,0.0,0 STARLINK-3448,1 51728U 22016Q   24169.53241439  .00001711  00000-0  12557-3 0  9990,2 51728  53.2173 268.0078 0001183  97.1052 263.0075 15.08831353128432,6917.907,95.438,540.59,538.953,0.0
51728.0,STARLINK-3448,PAYLOAD,2024-06-17 23:54:21,15.08847072,0.0001063,53.2138,265.926,100.6188,259.4924,2.3489e-05,8.6e-07,0.0,0 STARLINK-3448,1 51728U 22016Q   24169.99608631  .00000086  00000-0  23489-4 0  9992,2 51728  53.2138 265.9260 0001063 100.6188 259.4924 15.08847072129639,6917.859,95.437,540.459,538.988,0.0
51728.0,STARLINK-3448,PAYLOAD,2024-06-18 12:37:27,15.08844621,0.0001173,53.2157,263.5478,96.6585,263.454,8.4105e-05,1.051e-05,0.0,0 STARLINK-3448,1 51728U 22016Q   24170.52600700  .00001051  00000-0  84105-4 0  9997,2 51728  53.2157 263.5478 0001173  96.6585 263.4540 15.08844621128581,6917.866,95.437,540.543,538.92,0.0
51728.0,STARLINK-3448,PAYLOAD,2024-06-19 12:28:14,15.08836397,0.0001245,53.2163,259.0872,95.2614,264.852,1.2858e-05,-8.3e-07,0.0,0 STARLINK-3448,1 51728U 22016Q   24171.51961372 -.00000083  00000-0  12858-4 0  9993,2 51728  53.2163 259.0872 0001245  95.2614 264.8520 15.08836397129860,6917.891,95.438,540.618,538.895,0.0
51728.0,STARLINK-3448,PAYLOAD,2024-06-19 15:39:00,15.08836843,0.0001249,53.2163,258.4924,94.8494,265.2641,1.2899e-05,-8.3e-07,0.0,0 STARLINK-3448,1 51728U 22016Q   24171.65209346 -.00000083  00000-0  12899-4 0  9999,2 51728  53.2163 258.4924 0001249  94.8494 265.2641 15.08836843128758,6917.89,95.438,540.619,538.891,0.0
51728.0,STARLINK-3448,PAYLOAD,2024-06-20 10:43:38,15.08836868,0.0001239,53.2165,254.9233,94.0713,266.0421,1.9124e-06,-2.57e-06,0.0,0 STARLINK-3448,1 51728U 22016Q   24172.44697427 -.00000257  00000-0  19124-5 0  9990,2 51728  53.2165 254.9233 0001239  94.0713 266.0421 15.08836868128874,6917.89,95.438,540.612,538.898,0.0
51728.0,STARLINK-3448,PAYLOAD,2024-06-20 15:29:47,15.08839084,0.0001249,53.2166,254.0321,92.3876,267.7259,-1.4777e-05,-5.23e-06,0.0,0 STARLINK-3448,1 51728U 22016Q   24172.64569383 -.00000523  00000-0 -14777-4 0  9996,2 51728  53.2166 254.0321 0001249  92.3876 267.7259 15.08839084130037,6917.883,95.438,540.612,538.884,0.0
51728.0,STARLINK-3448,PAYLOAD,2024-06-21 10:34:25,15.08834119,0.0001246,53.2165,250.4636,92.9477,267.1658,6.3113e-05,7.17e-06,0.0,0 STARLINK-3448,1 51728U 22016Q   24173.44057578  .00000717  00000-0  63113-4 0  9994,2 51728  53.2165 250.4636 0001246  92.9477 267.1658 15.08834119129023,6917.898,95.438,540.625,538.901,0.0
51728.0,STARLINK-3448,PAYLOAD,2024-06-22 12:00:36,15.0883711,0.0001208,53.2162,245.7064,92.1935,267.9195,5.3522e-05,5.64e-06,0.0,0 STARLINK-3448,1 51728U 22016Q   24174.50041761  .00000564  00000-0  53522-4 0  9992,2 51728  53.2162 245.7064 0001208  92.1935 267.9195 15.08837110130313,6917.889,95.438,540.59,538.919,0.0
51728.0,STARLINK-3448,PAYLOAD,2024-06-22 13:35:59,15.0883744,0.0001199,53.2161,245.409,89.2961,270.8168,5.4664e-05,5.82e-06,0.0,0 STARLINK-3448,1 51728U 22016Q   24174.56665758  .00000582  00000-0  54664-4 0  9994,2 51728  53.2161 245.4090 0001199  89.2961 270.8168 15.08837440129196,6917.888,95.438,540.583,538.924,0.0
51728.0,STARLINK-3448,PAYLOAD,2024-06-23 11:51:23,15.08837691,0.0001229,53.2161,241.2467,87.3358,272.7775,6.0435e-05,6.74e-06,0.0,0 STARLINK-3448,1 51728U 22016Q   24175.49401877  .00000674  00000-0  60435-4 0  9992,2 51728  53.2161 241.2467 0001229  87.3358 272.7775 15.08837691129330,6917.887,95.438,540.603,538.902,0.0
51728.0,STARLINK-3448,PAYLOAD,2024-06-23 15:02:09,15.0883912,0.0001252,53.2162,240.6508,86.6415,273.472,6.7737e-05,7.9e-06,0.0,0 STARLINK-3448,1 51728U 22016Q   24175.62649775  .00000790  00000-0  67737-4 0  9999,2 51728  53.2162 240.6508 0001252  86.6415 273.4720 15.08839120130487,6917.883,95.438,540.614,538.882,0.0
51728.0,STARLINK-3448,PAYLOAD,2024-06-24 11:42:09,15.08845386,0.0001235,53.2159,236.785,81.7936,278.3196,0.00010132,1.325e-05,0.0,0 STARLINK-3448,1 51728U 22016Q   24176.48761149  .00001325  00000-0  10132-3 0  9995,2 51728  53.2159 236.7850 0001235  81.7936 278.3196 15.08845386129484,6917.864,95.437,540.583,538.875,0.0
51728.0,STARLINK-3448,PAYLOAD,2024-06-25 11:32:56,15.08840984,0.0001281,53.2159,232.3247,84.8895,275.2244,3.9724e-05,3.44e-06,0.0,0 STARLINK-3448,1 51728U 22016Q   24177.48121515  .00000344  00000-0  39724-4 0  9992,2 51728  53.2159 232.3247 0001281  84.8895 275.2244 15.08840984130767,6917.877,95.437,540.629,538.856,0.0
51728.0,STARLINK-3448,PAYLOAD,2024-06-26 09:48:20,15.0884256,0.0001554,53.2164,228.1606,71.7296,288.3865,2.4098e-05,9.6e-07,0.0,0 STARLINK-3448,1 51728U 22016Q   24178.40857407  .00000096  00000-0  24098-4 0  9993,2 51728  53.2164 228.1606 0001554  71.7296 288.3865 15.08842560129773,6917.873,95.437,540.813,538.663,0.0
51728.0,STARLINK-3448,PAYLOAD,2024-06-27 09:39:07,15.08838898,0.0001235,53.2148,223.6994,105.4336,254.6792,3.7515e-05,3.09e-06,0.0,0 STARLINK-3448,1 51728U 22016Q   24179.40217362  .00000309  00000-0  37515-4 0  9999,2 51728  53.2148 223.6994 0001235 105.4336 254.6792 15.08838898131059,6917.884,95.438,540.603,538.894,0.0
51728.0,STARLINK-3448,PAYLOAD,2024-06-28 09:29:54,15.088411,0.000126,53.2144,219.2408,95.7016,264.412,5.5997e-05,6.03e-06,0.0,0 STARLINK-3448,1 51728U 22016Q   24180.39577375  .00000603  00000-0  55997-4 0  9993,2 51728  53.2144 219.2408 0001260  95.7016 264.4120 15.08841100130075,6917.877,95.437,540.614,538.87,0.0
51728.0,STARLINK-3448,PAYLOAD,2024-06-29 09:20:44,15.08824531,0.0001328,53.2145,214.7799,96.3072,263.8072,3.2487e-06,-2.36e-06,0.0,0 STARLINK-3448,1 51728U 22016Q   24181.38939961 -.00000236  00000-0  32487-5 0  9999,2 51728  53.2145 214.7799 0001328  96.3072 263.8072 15.08824531131353,6917.928,95.439,540.711,538.874,0.0
51728.0,STARLINK-3448,PAYLOAD,2024-06-29 18:53:02,15.08828921,0.0001444,53.2151,212.998,102.4233,257.6921,3.3761e-05,2.49e-06,0.0,0 STARLINK-3448,1 51728U 22016Q   24181.78683998  .00000249  00000-0  33761-4 0  9997,2 51728  53.2151 212.9980 0001444 102.4233 257.6921 15.08828921130281,6917.914,95.438,540.778,538.78,0.0
51728.0,STARLINK-3448,PAYLOAD,2024-06-30 09:11:30,15.08842835,0.0001471,53.2141,210.3195,115.9886,244.1258,4.3364e-05,4.02e-06,0.0,0 STARLINK-3448,1 51728U 22016Q   24182.38299404  .00000402  00000-0  43364-4 0  9990,2 51728  53.2141 210.3195 0001471 115.9886 244.1258 15.08842835131503,6917.872,95.437,540.754,538.719,0.0
51728.0,STARLINK-3448,PAYLOAD,2024-06-30 18:43:50,15.08837042,0.0001421,53.2138,208.5352,103.3951,256.7199,0.00042956,6.555e-05,0.0,0 STARLINK-3448,1 51728U 22016Q   24182.78044113  .00006555  00000-0  42956-3 0  9999,2 51728  53.2138 208.5352 0001421 103.3951 256.7199 15.08837042131565,6917.889,95.438,540.737,538.771,0.0
51728.0,STARLINK-3448,PAYLOAD,2024-07-01 10:37:40,15.08856469,0.0001316,53.2131,205.5606,96.423,263.6912,0.00039922,6.074e-05,0.0,0 STARLINK-3448,1 51728U 22016Q   24183.44283273  .00006074  00000-0  39922-3 0  9990,2 51728  53.2131 205.5606 0001316  96.4230 263.6912 15.08856469131667,6917.83,95.437,540.605,538.785,0.0
51728.0,STARLINK-3448,PAYLOAD,2024-07-01 18:34:35,15.08863663,0.0001295,53.2131,204.0732,91.4069,268.7071,0.00043443,6.637e-05,0.0,0 STARLINK-3448,1 51728U 22016Q   24183.77402684  .00006637  00000-0  43443-3 0  9993,2 51728  53.2131 204.0732 0001295  91.4069 268.7071 15.08863663130588,6917.808,95.436,540.569,538.777,0.0
51728.0,STARLINK-3448,PAYLOAD,2024-07-02 05:42:17,15.08851942,0.0001658,53.2131,201.9933,93.7445,266.3736,3.8964e-05,3.32e-06,0.0,0 STARLINK-3448,1 51728U 22016Q   24184.23770638  .00000332  00000-0  38964-4 0  9991,2 51728  53.2131 201.9933 0001658  93.7445 266.3736 15.08851942131785,6917.844,95.437,540.856,538.562,0.0
51728.0,STARLINK-3448,PAYLOAD,2024-07-02 08:53:03,15.08854421,0.000126,53.2128,201.3966,94.1848,265.9288,0.00010305,1.353e-05,0.0,0 STARLINK-3448,1 51728U 22016Q   24184.37018469  .00001353  00000-0  10305-3 0  9995,2 51728  53.2128 201.3966 0001260  94.1848 265.9288 15.08854421130671,6917.836,95.437,540.573,538.83,0.0
51728.0,STARLINK-3448,PAYLOAD,2024-07-02 18:25:22,15.08853942,0.0001257,53.2127,199.6124,93.5367,266.5769,8.1582e-05,1.011e-05,0.0,0 STARLINK-3448,1 51728U 22016Q   24184.76762149  .00001011  00000-0  81582-4 0  9996,2 51728  53.2127 199.6124 0001257  93.5367 266.5769 15.08853942130735,6917.838,95.437,540.572,538.833,0.0
51728.0,STARLINK-3448,PAYLOAD,2024-07-03 05:33:04,15.08848665,0.0001277,53.2138,197.5305,97.2091,262.9047,3.8173e-06,-2.27e-06,0.0,0 STARLINK-3448,1 51728U 22016Q   24185.23130193 -.00000227  00000-0  38173-5 0  9995,2 51728  53.2138 197.5305 0001277  97.2091 262.9047 15.08848665131930,6917.854,95.437,540.602,538.835,0.0
